AUTCUBE 2               
1 43681U 18084K   26068.48152820  .00005282  00000+0  33524-3 0  9991
2 43681  98.0799 269.3640 0009685  28.2406 331.9345 15.09319394401889
STARLINK-3554           
1 51872U 22022W   26068.22432703 -.00000149  00000+0  87440-5 0  9998
2 51872  53.2185  11.2121 0001359  85.5888 274.5260 15.08840127223040
