[{"OBJECT_NAME":"AUTCUBE 2","OBJECT_ID":"2018-084K","EPOCH":"2026-03-09T11:33:24.036480","MEAN_MOTION":15.09319394,"ECCENTRICITY":0.00096854,"INCLINATION":98.0799,"RA_OF_ASC_NODE":269.364,"ARG_OF_PERICENTER":28.2406,"MEAN_ANOMALY":331.9345,"EPHEMERIS_TYPE":0,"CLASSIFICATION_TYPE":"U","NORAD_CAT_ID":43681,"ELEMENT_SET_NO":999,"REV_AT_EPOCH":40188,"BSTAR":0.00033524122,"MEAN_MOTION_DOT":5.282e-5,"MEAN_MOTION_DDOT":0},{"OBJECT_NAME":"STARLINK-3554","OBJECT_ID":"2022-022W","EPOCH":"2026-03-09T05:23:01.855392","MEAN_MOTION":15.08840127,"ECCENTRICITY":0.00013595,"INCLINATION":53.2185,"RA_OF_ASC_NODE":11.2121,"ARG_OF_PERICENTER":85.5888,"MEAN_ANOMALY":274.526,"EPHEMERIS_TYPE":0,"CLASSIFICATION_TYPE":"U","NORAD_CAT_ID":51872,"ELEMENT_SET_NO":999,"REV_AT_EPOCH":22304,"BSTAR":8.744037e-6,"MEAN_MOTION_DOT":-1.49e-6,"MEAN_MOTION_DDOT":0}]
